{"type": "FeatureCollection", "features": [ {"type": "Feature", "properties": {"norad_id": 33799, "name": "COSMOS 2251 DEB", "group": "cosmos-2251-debris", "lat": 73.88327233955394, "lon": -174.06799251630264, "alt_km": 617.1911188223894, "timestamp": "2025-12-09T11:33:55.193712+00:00", "meta": {"OBJECT_NAME": "COSMOS 2251 DEB", "OBJECT_ID": "1993-036AQ", "EPOCH": "2025-12-08T18:00:12.146112", "MEAN_MOTION": 14.79481859, "ECCENTRICITY": 0.00237886, "INCLINATION": 74.0324, "RA_OF_ASC_NODE": 89.6423, "ARG_OF_PERICENTER": 161.7308, "MEAN_ANOMALY": 354.8729, "EPHEMERIS_TYPE": 0, "CLASSIFICATION_TYPE": "U", "NORAD_CAT_ID": 33799, "ELEMENT_SET_NO": 999, "REV_AT_EPOCH": 88752, "BSTAR": 0.0017589241, "MEAN_MOTION_DOT": 0.000132, "MEAN_MOTION_DDOT": 0}, "tle": {"line1": "1 33799U 93036AQ  25342.75014058  .00013200  00000+0  17589-2 0  9995", "line2": "2 33799  74.0324  89.6423 0023788 161.7308 354.8729 14.79481859887523"}}, "geometry": {"type": "Point", "coordinates": [-174.06799251630264, 73.88327233955394]}}, {"type": "Feature", "properties": {"norad_id": 33805, "name": "COSMOS 2251 DEB", "group": "cosmos-2251-debris", "lat": 55.58160859168748, "lon": 112.82742143169203, "alt_km": 656.2646390293958, "timestamp": "2025-12-09T11:33:55.193723+00:00", "meta": {"OBJECT_NAME": "COSMOS 2251 DEB", "OBJECT_ID": "1993-036AW", "EPOCH": "2025-12-09T01:07:53.830848", "MEAN_MOTION": 14.57842138, "ECCENTRICITY": 0.006033, "INCLINATION": 74.0318, "RA_OF_ASC_NODE": 318.3556, "ARG_OF_PERICENTER": 148.4007, "MEAN_ANOMALY": 212.0803, "EPHEMERIS_TYPE": 0, "CLASSIFICATION_TYPE": "U", "NORAD_CAT_ID": 33805, "ELEMENT_SET_NO": 999, "REV_AT_EPOCH": 89173, "BSTAR": 0.00033969, "MEAN_MOTION_DOT": 1.565e-05, "MEAN_MOTION_DDOT": 0}, "tle": {"line1": "1 33805U 93036AW  25343.04715082  .00001565  00000+0  33969-3 0  9993", "line2": "2 33805  74.0318 318.3556 0060330 148.4007 212.0803 14.57842138891738"}}, "geometry": {"type": "Point", "coordinates": [112.82742143169203, 55.58160859168748]}}, {"type": "Feature", "properties": {"norad_id": 33811, "name": "COSMOS 2251 DEB", "group": "cosmos-2251-debris", "lat": 24.007405980116356, "lon": 121.99096511323985, "alt_km": 562.2500573084508, "timestamp": "2025-12-09T11:33:55.193734+00:00", "meta": {"OBJECT_NAME": "COSMOS 2251 DEB", "OBJECT_ID": "1993-036BC", "EPOCH": "2025-12-09T01:38:12.962976", "MEAN_MOTION": 15.05080547, "ECCENTRICITY": 0.0030701, "INCLINATION": 73.8381, "RA_OF_ASC_NODE": 310.2695, "ARG_OF_PERICENTER": 31.5287, "MEAN_ANOMALY": 42.4911, "EPHEMERIS_TYPE": 0, "CLASSIFICATION_TYPE": "U", "NORAD_CAT_ID": 33811, "ELEMENT_SET_NO": 999, "REV_AT_EPOCH": 89963, "BSTAR": 0.0014587, "MEAN_MOTION_DOT": 0.00020987, "MEAN_MOTION_DDOT": 0}, "tle": {"line1": "1 33811U 93036BC  25343.06820559  .00020987  00000+0  14587-2 0  9991", "line2": "2 33811  73.8381 310.2695 0030701  31.5287  42.4911 15.05080547899632"}}, "geometry": {"type": "Point", "coordinates": [121.99096511323985, 24.007405980116356]}}, {"type": "Feature", "properties": {"norad_id": 33815, "name": "COSMOS 2251 DEB", "group": "cosmos-2251-debris", "lat": 70.92804792078138, "lon": -120.22125583570352, "alt_km": 510.0682481924259, "timestamp": "2025-12-09T11:33:55.193754+00:00", "meta": {"OBJECT_NAME": "COSMOS 2251 DEB", "OBJECT_ID": "1993-036BG", "EPOCH": "2025-12-09T00:41:33.447840", "MEAN_MOTION": 15.1666065, "ECCENTRICITY": 0.0002857, "INCLINATION": 73.9532, "RA_OF_ASC_NODE": 184.3694, "ARG_OF_PERICENTER": 229.719, "MEAN_ANOMALY": 257.3256, "EPHEMERIS_TYPE": 0, "CLASSIFICATION_TYPE": "U", "NORAD_CAT_ID": 33815, "ELEMENT_SET_NO": 999, "REV_AT_EPOCH": 88314, "BSTAR": 0.0065405, "MEAN_MOTION_DOT": 0.00130361, "MEAN_MOTION_DDOT": 0}, "tle": {"line1": "1 33815U 93036BG  25343.02885935  .00130361  00000+0  65405-2 0  9993", "line2": "2 33815  73.9532 184.3694 0002857 229.7190 257.3256 15.16660650883148"}}, "geometry": {"type": "Point", "coordinates": [-120.22125583570352, 70.92804792078138]}}, {"type": "Feature", "properties": {"norad_id": 33816, "name": "COSMOS 2251 DEB", "group": "cosmos-2251-debris", "lat": 73.8158604016317, "lon": -164.5281065398424, "alt_km": 791.1826065703881, "timestamp": "2025-12-09T11:33:55.193775+00:00", "meta": {"OBJECT_NAME": "COSMOS 2251 DEB", "OBJECT_ID": "1993-036BH", "EPOCH": "2025-12-08T19:30:15.806880", "MEAN_MOTION": 13.81776004, "ECCENTRICITY": 0.02649297, "INCLINATION": 73.8945, "RA_OF_ASC_NODE": 112.0515, "ARG_OF_PERICENTER": 125.7474, "MEAN_ANOMALY": 236.8604, "EPHEMERIS_TYPE": 0, "CLASSIFICATION_TYPE": "U", "NORAD_CAT_ID": 33816, "ELEMENT_SET_NO": 999, "REV_AT_EPOCH": 84619, "BSTAR": 0.00097318108, "MEAN_MOTION_DOT": 1.339e-05, "MEAN_MOTION_DDOT": 0}, "tle": {"line1": "1 33816U 93036BH  25342.81268295  .00001339  00000+0  97318-3 0  9995", "line2": "2 33816  73.8945 112.0515 0264929 125.7474 236.8604 13.81776004846190"}}, "geometry": {"type": "Point", "coordinates": [-164.5281065398424, 73.8158604016317]}}, {"type": "Feature", "properties": {"norad_id": 33818, "name": "COSMOS 2251 DEB", "group": "cosmos-2251-debris", "lat": 26.174182372658525, "lon": -178.95933841201105, "alt_km": 542.4583262462074, "timestamp": "2025-12-09T11:33:55.193796+00:00", "meta": {"OBJECT_NAME": "COSMOS 2251 DEB", "OBJECT_ID": "1993-036BK", "EPOCH": "2025-12-08T23:26:25.439712", "MEAN_MOTION": 15.12033466, "ECCENTRICITY": 0.0028049, "INCLINATION": 74.0755, "RA_OF_ASC_NODE": 174.0167, "ARG_OF_PERICENTER": 164.1684, "MEAN_ANOMALY": 354.6151, "EPHEMERIS_TYPE": 0, "CLASSIFICATION_TYPE": "U", "NORAD_CAT_ID": 33818, "ELEMENT_SET_NO": 999, "REV_AT_EPOCH": 89805, "BSTAR": 0.0025467, "MEAN_MOTION_DOT": 0.00044425, "MEAN_MOTION_DDOT": 0}, "tle": {"line1": "1 33818U 93036BK  25342.97668333  .00044425  00000+0  25467-2 0  9999", "line2": "2 33818  74.0755 174.0167 0028049 164.1684 354.6151 15.12033466898058"}}, "geometry": {"type": "Point", "coordinates": [-178.95933841201105, 26.174182372658525]}}, {"type": "Feature", "properties": {"norad_id": 33819, "name": "COSMOS 2251 DEB", "group": "cosmos-2251-debris", "lat": 8.636768132663104, "lon": -141.79299837550627, "alt_km": 762.4403311351198, "timestamp": "2025-12-09T11:33:55.193808+00:00", "meta": {"OBJECT_NAME": "COSMOS 2251 DEB", "OBJECT_ID": "1993-036BL", "EPOCH": "2025-12-09T02:12:34.695072", "MEAN_MOTION": 14.3220226, "ECCENTRICITY": 0.0088951, "INCLINATION": 74.179, "RA_OF_ASC_NODE": 216.4434, "ARG_OF_PERICENTER": 78.8797, "MEAN_ANOMALY": 82.0875, "EPHEMERIS_TYPE": 0, "CLASSIFICATION_TYPE": "U", "NORAD_CAT_ID": 33819, "ELEMENT_SET_NO": 999, "REV_AT_EPOCH": 87443, "BSTAR": 0.00079293, "MEAN_MOTION_DOT": 2.208e-05, "MEAN_MOTION_DDOT": 0}, "tle": {"line1": "1 33819U 93036BL  25343.09206823  .00002208  00000+0  79293-3 0  9996", "line2": "2 33819  74.1790 216.4434 0088951  78.8797  82.0875 14.32202260874433"}}, "geometry": {"type": "Point", "coordinates": [-141.79299837550627, 8.636768132663104]}}, {"type": "Feature", "properties": {"norad_id": 33821, "name": "COSMOS 2251 DEB", "group": "cosmos-2251-debris", "lat": 36.416089715880105, "lon": 161.9193437232284, "alt_km": 517.8718483977236, "timestamp": "2025-12-09T11:33:55.193820+00:00", "meta": {"OBJECT_NAME": "COSMOS 2251 DEB", "OBJECT_ID": "1993-036BN", "EPOCH": "2025-12-09T03:31:28.570080", "MEAN_MOTION": 15.24968538, "ECCENTRICITY": 0.0052777, "INCLINATION": 74.0299, "RA_OF_ASC_NODE": 150.4306, "ARG_OF_PERICENTER": 184.8264, "MEAN_ANOMALY": 175.2435, "EPHEMERIS_TYPE": 0, "CLASSIFICATION_TYPE": "U", "NORAD_CAT_ID": 33821, "ELEMENT_SET_NO": 999, "REV_AT_EPOCH": 74946, "BSTAR": 0.0015242, "MEAN_MOTION_DOT": 0.0003972, "MEAN_MOTION_DDOT": 0}, "tle": {"line1": "1 33821U 93036BN  25343.14685845  .00039720  00000+0  15242-2 0  9992", "line2": "2 33821  74.0299 150.4306 0052777 184.8264 175.2435 15.24968538749468"}}, "geometry": {"type": "Point", "coordinates": [161.9193437232284, 36.416089715880105]}}, {"type": "Feature", "properties": {"norad_id": 33822, "name": "COSMOS 2251 DEB", "group": "cosmos-2251-debris", "lat": 57.46072347014276, "lon": -133.9737914114084, "alt_km": 953.642811692629, "timestamp": "2025-12-09T11:33:55.193837+00:00", "meta": {"OBJECT_NAME": "COSMOS 2251 DEB", "OBJECT_ID": "1993-036BP", "EPOCH": "2025-12-09T01:49:00.379776", "MEAN_MOTION": 14.13041968, "ECCENTRICITY": 0.0153609, "INCLINATION": 74.0694, "RA_OF_ASC_NODE": 200.15, "ARG_OF_PERICENTER": 247.3392, "MEAN_ANOMALY": 268.3447, "EPHEMERIS_TYPE": 0, "CLASSIFICATION_TYPE": "U", "NORAD_CAT_ID": 33822, "ELEMENT_SET_NO": 999, "REV_AT_EPOCH": 86002, "BSTAR": 0.00145, "MEAN_MOTION_DOT": 3.003e-05, "MEAN_MOTION_DDOT": 0}, "tle": {"line1": "1 33822U 93036BP  25343.07569884  .00003003  00000+0  14500-2 0  9990", "line2": "2 33822  74.0694 200.1500 0153609 247.3392 268.3447 14.13041968860029"}}, "geometry": {"type": "Point", "coordinates": [-133.9737914114084, 57.46072347014276]}}, {"type": "Feature", "properties": {"norad_id": 33823, "name": "COSMOS 2251 DEB", "group": "cosmos-2251-debris", "lat": 47.63438572065424, "lon": 173.6161801007839, "alt_km": 988.1016172295513, "timestamp": "2025-12-09T11:33:55.193848+00:00", "meta": {"OBJECT_NAME": "COSMOS 2251 DEB", "OBJECT_ID": "1993-036BQ", "EPOCH": "2025-12-08T22:10:27.781824", "MEAN_MOTION": 13.98935381, "ECCENTRICITY": 0.0209297, "INCLINATION": 73.8094, "RA_OF_ASC_NODE": 156.0181, "ARG_OF_PERICENTER": 281.7986, "MEAN_ANOMALY": 197.8147, "EPHEMERIS_TYPE": 0, "CLASSIFICATION_TYPE": "U", "NORAD_CAT_ID": 33823, "ELEMENT_SET_NO": 999, "REV_AT_EPOCH": 85556, "BSTAR": 0.00098246, "MEAN_MOTION_DOT": 1.684e-05, "MEAN_MOTION_DDOT": 0}, "tle": {"line1": "1 33823U 93036BQ  25342.92393266  .00001684  00000+0  98246-3 0  9996", "line2": "2 33823  73.8094 156.0181 0209297 281.7986 197.8147 13.98935381855560"}}, "geometry": {"type": "Point", "coordinates": [173.6161801007839, 47.63438572065424]}}]}